GLOBALSTAR M084         
1 38040U 11080A   25013.59137117 -.00000113  00000+0 -51464-4 0  9990
2 38040  51.9990 159.1181 0001265  95.7515   2.6388 12.62273519603141
GLOBALSTAR M080         
1 38041U 11080B   25013.56385454 -.00000125  00000+0 -11662-3 0  9995
2 38041  52.0041 160.7580 0001286  80.9782  10.0028 12.62260492603260
GLOBALSTAR M082         
1 38042U 11080C   25013.57252545 -.00000107  00000+0 -19382-4 0  9999
2 38042  52.0073 116.1589 0000917 149.0305 283.0580 12.62271979603973
GLOBALSTAR M092         
1 38043U 11080D   25013.53428661 -.00000080  00000+0  13426-3 0  9991
2 38043  52.0054 206.6442 0001156  90.3057 287.9405 12.62272086602422
GLOBALSTAR M090         
1 38044U 11080E   25013.52981389 -.00000107  00000+0 -16323-4 0  9993
2 38044  51.9884 110.2969 0000707 132.6488 344.9511 12.62265585604087
GLOBALSTAR M086         
1 38045U 11080F   25013.29489743 -.00000110  00000+0 -37454-4 0  9997
2 38045  51.9895 111.5506 0000557  38.5254 331.5097 12.62265589604006
GLOBALSTAR M097         
1 39072U 13005A   25013.39861748 -.00000086  00000+0  97701-4 0  9999
2 39072  52.0063  25.6260 0000083  80.7170 279.3706 12.62268889551269
GLOBALSTAR M093         
1 39073U 13005B   25013.52996518 -.00000101  00000+0  15913-4 0  9992
2 39073  51.9829  18.7722 0000084 354.8823   5.2042 12.62271807551235
